start=new Date('2022-02-11T00:00:00.000Z').valueOf();
sats=[{"OBJECT_ID":"2020-038AW","SEMIMAJOR_AXIS":"6925.339","ELEMENT_SET_NO":"999","CLASSIFICATION_TYPE":"U","MEAN_ELEMENT_THEORY":"SGP4","INCLINATION":"53.0564","FILE":"3296865","TIME_SYSTEM":"UTC","OBJECT_NAME":"STARLINK-1485","DECAY_DATE":null,"EPHEMERIS_TYPE":"0","GP_ID":"195681388","ARG_OF_PERICENTER":"65.9225","RA_OF_ASC_NODE":"38.4204","TLE_LINE1":"1 45774U 20038AW  22041.26276620  .00002164  00000-0  16409-3 0  9996","MEAN_MOTION_DOT":"0.00002164","PERIOD":"95.592","NORAD_CAT_ID":"45774","REV_AT_EPOCH":"9241","COUNTRY_CODE":"US","APOAPSIS":"548.349","MEAN_MOTION":"15.06403054","CENTER_NAME":"EARTH","RCS_SIZE":"LARGE","PERIAPSIS":"546.059","MEAN_MOTION_DDOT":"0.0000000000000","ECCENTRICITY":"0.00016530","SITE":"AFETR","REF_FRAME":"TEME","TLE_LINE2":"2 45774  53.0564  38.4204 0001653  65.9225 294.1936 15.06403054 92415","OBJECT_TYPE":"PAYLOAD","MEAN_ANOMALY":"294.1936","EPOCH":"2022-02-10T06:18:22.999680","BSTAR":"0.00016409000000","LAUNCH_DATE":"2020-06-13"},{"PERIAPSIS":"546.150","RCS_SIZE":"LARGE","MEAN_MOTION_DDOT":"0.0000000000000","ECCENTRICITY":"0.00015120","APOAPSIS":"548.244","MEAN_MOTION":"15.06405303","CENTER_NAME":"EARTH","EPOCH":"2022-02-10T09:34:46.612704","BSTAR":"0.00025008000000","LAUNCH_DATE":"2020-06-13","TLE_LINE2":"2 45775  53.0557  37.8165 0001512  68.3743 291.7407 15.06405303 92441","SITE":"AFETR","REF_FRAME":"TEME","MEAN_ANOMALY":"291.7407","OBJECT_TYPE":"PAYLOAD","OBJECT_NAME":"STARLINK-1488","DECAY_DATE":null,"EPHEMERIS_TYPE":"0","GP_ID":"195681633","ARG_OF_PERICENTER":"68.3743","OBJECT_ID":"2020-038AX","MEAN_ELEMENT_THEORY":"SGP4","CLASSIFICATION_TYPE":"U","ELEMENT_SET_NO":"999","SEMIMAJOR_AXIS":"6925.332","INCLINATION":"53.0557","TIME_SYSTEM":"UTC","FILE":"3296865","REV_AT_EPOCH":"9244","COUNTRY_CODE":"US","RA_OF_ASC_NODE":"37.8165","MEAN_MOTION_DOT":"0.00003446","TLE_LINE1":"1 45775U 20038AX  22041.39915061  .00003446  00000-0  25008-3 0  9999","NORAD_CAT_ID":"45775","PERIOD":"95.592"},{"EPOCH":"2022-02-10T22:29:42.035712","BSTAR":"0.00019649000000","LAUNCH_DATE":"2020-06-13","SITE":"AFETR","REF_FRAME":"TEME","TLE_LINE2":"2 45776  53.0546  35.3912 0001661  60.3685 299.7470 15.06410296 92529","OBJECT_TYPE":"PAYLOAD","MEAN_ANOMALY":"299.7470","PERIAPSIS":"546.032","RCS_SIZE":"LARGE","MEAN_MOTION_DDOT":"0.0000000000000","ECCENTRICITY":"0.00016610","APOAPSIS":"548.332","MEAN_MOTION":"15.06410296","CENTER_NAME":"EARTH","REV_AT_EPOCH":"9252","COUNTRY_CODE":"US","RA_OF_ASC_NODE":"35.3912","TLE_LINE1":"1 45776U 20038AY  22041.93729208  .00002647  00000-0  19649-3 0  9992","MEAN_MOTION_DOT":"0.00002647","PERIOD":"95.591","NORAD_CAT_ID":"45776","OBJECT_NAME":"STARLINK-1489","DECAY_DATE":null,"EPHEMERIS_TYPE":"0","GP_ID":"195711421","ARG_OF_PERICENTER":"60.3685","OBJECT_ID":"2020-038AY","ELEMENT_SET_NO":"999","SEMIMAJOR_AXIS":"6925.317","MEAN_ELEMENT_THEORY":"SGP4","CLASSIFICATION_TYPE":"U","INCLINATION":"53.0546","FILE":"3297147","TIME_SYSTEM":"UTC"},{"NORAD_CAT_ID":"45777","PERIOD":"95.591","MEAN_MOTION_DOT":"0.00004026","TLE_LINE1":"1 45777U 20038AZ  22041.46917666  .00004026  00000-0  28893-3 0  9992","RA_OF_ASC_NODE":"37.5076","COUNTRY_CODE":"US","REV_AT_EPOCH":"9245","TIME_SYSTEM":"UTC","FILE":"3296865","INCLINATION":"53.0550","MEAN_ELEMENT_THEORY":"SGP4","CLASSIFICATION_TYPE":"U","ELEMENT_SET_NO":"999","SEMIMAJOR_AXIS":"6925.306","OBJECT_ID":"2020-038AZ","ARG_OF_PERICENTER":"57.4775","GP_ID":"195680637","EPHEMERIS_TYPE":"0","DECAY_DATE":null,"OBJECT_NAME":"STARLINK-1490","MEAN_ANOMALY":"302.6381","OBJECT_TYPE":"PAYLOAD","TLE_LINE2":"2 45777  53.0550  37.5076 0001739  57.4775 302.6381 15.06413925 92452","REF_FRAME":"TEME","SITE":"AFETR","LAUNCH_DATE":"2020-06-13","BSTAR":"0.00028893000000","EPOCH":"2022-02-10T11:15:36.863424","CENTER_NAME":"EARTH","MEAN_MOTION":"15.06413925","APOAPSIS":"548.375","ECCENTRICITY":"0.00017390","MEAN_MOTION_DDOT":"0.0000000000000","PERIAPSIS":"545.967","RCS_SIZE":"LARGE"},{"COUNTRY_CODE":"US","REV_AT_EPOCH":"9247","NORAD_CAT_ID":"45778","PERIOD":"95.592","TLE_LINE1":"1 45778U 20038BA  22041.71613855  .00002591  00000-0  19277-3 0  9995","MEAN_MOTION_DOT":"0.00002591","RA_OF_ASC_NODE":"36.3910","ARG_OF_PERICENTER":"67.9415","GP_ID":"195712423","EPHEMERIS_TYPE":"0","OBJECT_NAME":"STARLINK-1491","DECAY_DATE":null,"TIME_SYSTEM":"UTC","FILE":"3297147","INCLINATION":"53.0549","CLASSIFICATION_TYPE":"U","MEAN_ELEMENT_THEORY":"SGP4","SEMIMAJOR_AXIS":"6925.327","ELEMENT_SET_NO":"999","OBJECT_ID":"2020-038BA","LAUNCH_DATE":"2020-06-13","BSTAR":"0.00019277000000","EPOCH":"2022-02-10T17:11:14.370720","MEAN_ANOMALY":"292.1758","OBJECT_TYPE":"PAYLOAD","TLE_LINE2":"2 45778  53.0549  36.3910 0001728  67.9415 292.1758 15.06406913 92472","SITE":"AFETR","REF_FRAME":"TEME","ECCENTRICITY":"0.00017280","MEAN_MOTION_DDOT":"0.0000000000000","RCS_SIZE":"LARGE","PERIAPSIS":"545.996","CENTER_NAME":"EARTH","MEAN_MOTION":"15.06406913","APOAPSIS":"548.389"},{"MEAN_MOTION":"15.06408299","CENTER_NAME":"EARTH","APOAPSIS":"548.491","ECCENTRICITY":"0.00018810","PERIAPSIS":"545.885","RCS_SIZE":"LARGE","MEAN_MOTION_DDOT":"0.0000000000000","TLE_LINE2":"2 45779  53.0529  36.4063 0001881  55.1920 304.9246 15.06408299 92474","SITE":"AFETR","REF_FRAME":"TEME","MEAN_ANOMALY":"304.9246","OBJECT_TYPE":"PAYLOAD","BSTAR":"0.00014537000000","LAUNCH_DATE":"2020-06-13","EPOCH":"2022-02-10T17:05:55.751712","INCLINATION":"53.0529","TIME_SYSTEM":"UTC","FILE":"3297147","OBJECT_ID":"2020-038BB","CLASSIFICATION_TYPE":"U","MEAN_ELEMENT_THEORY":"SGP4","ELEMENT_SET_NO":"999","SEMIMAJOR_AXIS":"6925.323","GP_ID":"195713172","ARG_OF_PERICENTER":"55.1920","DECAY_DATE":null,"OBJECT_NAME":"STARLINK-1492","EPHEMERIS_TYPE":"0","MEAN_MOTION_DOT":"0.00001885","TLE_LINE1":"1 45779U 20038BB  22041.71245083  .00001885  00000-0  14537-3 0  9999","NORAD_CAT_ID":"45779","PERIOD":"95.592","RA_OF_ASC_NODE":"36.4063","REV_AT_EPOCH":"9247","COUNTRY_CODE":"US"},{"OBJECT_TYPE":"PAYLOAD","MEAN_ANOMALY":"298.4662","SITE":"AFETR","REF_FRAME":"TEME","TLE_LINE2":"2 45780  53.0549  37.8579 0002067  61.6536 298.4662 15.06415493 92425","LAUNCH_DATE":"2020-06-13","BSTAR":"0.00047671000000","EPOCH":"2022-02-10T09:24:09.994176","CENTER_NAME":"EARTH","MEAN_MOTION":"15.06415493","APOAPSIS":"548.598","ECCENTRICITY":"0.00020670","MEAN_MOTION_DDOT":"0.0000000000000","PERIAPSIS":"545.735","RCS_SIZE":"LARGE","PERIOD":"95.591","NORAD_CAT_ID":"45780","MEAN_MOTION_DOT":"0.00006829","TLE_LINE1":"1 45780U 20038BC  22041.39178234  .00006829  00000-0  47671-3 0  9996","RA_OF_ASC_NODE":"37.8579","COUNTRY_CODE":"US","REV_AT_EPOCH":"9242","FILE":"3296865","TIME_SYSTEM":"UTC","INCLINATION":"53.0549","SEMIMAJOR_AXIS":"6925.301","ELEMENT_SET_NO":"999","CLASSIFICATION_TYPE":"U","MEAN_ELEMENT_THEORY":"SGP4","OBJECT_ID":"2020-038BC","ARG_OF_PERICENTER":"61.6536","GP_ID":"195679888","EPHEMERIS_TYPE":"0","DECAY_DATE":null,"OBJECT_NAME":"STARLINK-1496"},{"ECCENTRICITY":"0.00017130","RCS_SIZE":"LARGE","PERIAPSIS":"545.999","MEAN_MOTION_DDOT":"0.0000000000000","MEAN_MOTION":"15.06409200","CENTER_NAME":"EARTH","APOAPSIS":"548.372","BSTAR":"0.00018312000000","LAUNCH_DATE":"2020-06-13","EPOCH":"2022-02-10T16:23:27.721536","SITE":"AFETR","REF_FRAME":"TEME","TLE_LINE2":"2 45781  53.0546  36.5471 0001713  62.0511 298.0652 15.06409200 92474","OBJECT_TYPE":"PAYLOAD","MEAN_ANOMALY":"298.0652","GP_ID":"195712171","ARG_OF_PERICENTER":"62.0511","OBJECT_NAME":"STARLINK-1497","DECAY_DATE":null,"EPHEMERIS_TYPE":"0","INCLINATION":"53.0546","FILE":"3297147","TIME_SYSTEM":"UTC","OBJECT_ID":"2020-038BD","SEMIMAJOR_AXIS":"6925.320","ELEMENT_SET_NO":"999","CLASSIFICATION_TYPE":"U","MEAN_ELEMENT_THEORY":"SGP4","REV_AT_EPOCH":"9247","COUNTRY_CODE":"US","TLE_LINE1":"1 45781U 20038BD  22041.68295974  .00002448  00000-0  18312-3 0  9993","MEAN_MOTION_DOT":"0.00002448","PERIOD":"95.592","NORAD_CAT_ID":"45781","RA_OF_ASC_NODE":"36.5471"},{"OBJECT_ID":"2020-038BE","MEAN_ELEMENT_THEORY":"SGP4","CLASSIFICATION_TYPE":"U","ELEMENT_SET_NO":"999","SEMIMAJOR_AXIS":"6925.340","INCLINATION":"53.0560","TIME_SYSTEM":"UTC","FILE":"3297147","OBJECT_NAME":"STARLINK-1498","DECAY_DATE":null,"EPHEMERIS_TYPE":"0","GP_ID":"195712923","ARG_OF_PERICENTER":"58.9393","RA_OF_ASC_NODE":"36.5791","MEAN_MOTION_DOT":"-0.00000117","TLE_LINE1":"1 45782U 20038BE  22041.67558559 -.00000117  00000-0  11068-4 0  9998","NORAD_CAT_ID":"45782","PERIOD":"95.592","REV_AT_EPOCH":"9248","COUNTRY_CODE":"US","APOAPSIS":"548.334","MEAN_MOTION":"15.06402680","CENTER_NAME":"EARTH","RCS_SIZE":"LARGE","PERIAPSIS":"546.077","MEAN_MOTION_DDOT":"0.0000000000000","ECCENTRICITY":"0.00016300","TLE_LINE2":"2 45782  53.0560  36.5791 0001630  58.9393 301.1756 15.06402680 92483","REF_FRAME":"TEME","SITE":"AFETR","MEAN_ANOMALY":"301.1756","OBJECT_TYPE":"PAYLOAD","EPOCH":"2022-02-10T16:12:50.594976","BSTAR":"0.00001106800000","LAUNCH_DATE":"2020-06-13"},{"APOAPSIS":"548.430","MEAN_MOTION":"15.06398333","CENTER_NAME":"EARTH","RCS_SIZE":"LARGE","PERIAPSIS":"546.007","MEAN_MOTION_DDOT":"0.0000000000000","ECCENTRICITY":"0.00017490","TLE_LINE2":"2 45783  53.0570  36.5485 0001749  66.5073 293.6100 15.06398333 92483","SITE":"AFETR","REF_FRAME":"TEME","MEAN_ANOMALY":"293.6100","OBJECT_TYPE":"PAYLOAD","EPOCH":"2022-02-10T16:18:10.732896","BSTAR":"0.00013278000000","LAUNCH_DATE":"2020-06-13","OBJECT_ID":"2020-038BF","CLASSIFICATION_TYPE":"U","MEAN_ELEMENT_THEORY":"SGP4","ELEMENT_SET_NO":"999","SEMIMAJOR_AXIS":"6925.354","INCLINATION":"53.0570","TIME_SYSTEM":"UTC","FILE":"3297147","DECAY_DATE":null,"OBJECT_NAME":"STARLINK-1505","EPHEMERIS_TYPE":"0","GP_ID":"195712673","ARG_OF_PERICENTER":"66.5073","RA_OF_ASC_NODE":"36.5485","MEAN_MOTION_DOT":"0.00001697","TLE_LINE1":"1 45783U 20038BF  22041.67929089  .00001697  00000-0  13278-3 0  9996","NORAD_CAT_ID":"45783","PERIOD":"95.592","REV_AT_EPOCH":"9248","COUNTRY_CODE":"US"}];
